start=new Date('2022-01-10T00:00:00.000Z').valueOf();
sats=[{"LAUNCH_DATE":"2021-03-24","GP_ID":"193527096","ECCENTRICITY":"0.00018290","MEAN_ELEMENT_THEORY":"SGP4","INCLINATION":"53.0539","SITE":"AFETR","TLE_LINE1":"1 47978U 21024B   22009.56921691  .00005703  00000-0  40134-3 0  9996","PERIAPSIS":"545.909","EPHEMERIS_TYPE":"0","MEAN_MOTION":"15.06412527","RA_OF_ASC_NODE":"320.7062","MEAN_MOTION_DDOT":"0.0000000000000","OBJECT_NAME":"STARLINK-1647","ELEMENT_SET_NO":"999","FILE":"3268062","TIME_SYSTEM":"UTC","BSTAR":"0.00040134000000","NORAD_CAT_ID":"47978","REV_AT_EPOCH":"4544","OBJECT_ID":"2021-024B","RCS_SIZE":"LARGE","PERIOD":"95.591","CENTER_NAME":"EARTH","DECAY_DATE":null,"MEAN_MOTION_DOT":"0.00005703","MEAN_ANOMALY":"294.4264","OBJECT_TYPE":"PAYLOAD","APOAPSIS":"548.442","ARG_OF_PERICENTER":"65.6915","EPOCH":"2022-01-09T13:39:40.341024","CLASSIFICATION_TYPE":"U","SEMIMAJOR_AXIS":"6925.310","REF_FRAME":"TEME","COUNTRY_CODE":"US","TLE_LINE2":"2 47978  53.0539 320.7062 0001829  65.6915 294.4264 15.06412527 45445"},{"BSTAR":"-0.00127050000000","NORAD_CAT_ID":"47979","REV_AT_EPOCH":"358","MEAN_MOTION_DDOT":"0.0000000000000","RA_OF_ASC_NODE":"253.9198","OBJECT_NAME":"STARLINK-2325","FILE":"3268323","ELEMENT_SET_NO":"999","TIME_SYSTEM":"UTC","PERIAPSIS":"553.199","TLE_LINE1":"1 47979U 21024C   22009.91667824 -.00017959  00000-0 -12705-2 0  9991","EPHEMERIS_TYPE":"0","MEAN_MOTION":"15.03967121","LAUNCH_DATE":"2021-03-24","GP_ID":"193558949","ECCENTRICITY":"0.00021360","MEAN_ELEMENT_THEORY":"SGP4","SITE":"AFETR","INCLINATION":"53.0506","COUNTRY_CODE":"US","TLE_LINE2":"2 47979  53.0506 253.9198 0002136  72.6092 118.8790 15.03967121  3587","CLASSIFICATION_TYPE":"U","SEMIMAJOR_AXIS":"6932.815","REF_FRAME":"TEME","MEAN_ANOMALY":"118.8790","OBJECT_TYPE":"PAYLOAD","APOAPSIS":"556.161","ARG_OF_PERICENTER":"72.6092","EPOCH":"2022-01-09T22:00:00.999936","OBJECT_ID":"2021-024C","CENTER_NAME":"EARTH","RCS_SIZE":"LARGE","PERIOD":"95.747","MEAN_MOTION_DOT":"-0.00017959","DECAY_DATE":null},{"REF_FRAME":"TEME","SEMIMAJOR_AXIS":"6927.813","CLASSIFICATION_TYPE":"U","TLE_LINE2":"2 47980  53.0530 234.0791 0002648  60.9095 344.5107 15.05596352  3593","COUNTRY_CODE":"US","DECAY_DATE":null,"MEAN_MOTION_DOT":"-0.00011813","OBJECT_ID":"2021-024D","RCS_SIZE":"LARGE","PERIOD":"95.643","CENTER_NAME":"EARTH","ARG_OF_PERICENTER":"60.9095","EPOCH":"2022-01-09T22:00:00.999936","MEAN_ANOMALY":"344.5107","APOAPSIS":"551.512","OBJECT_TYPE":"PAYLOAD","ELEMENT_SET_NO":"999","FILE":"3268323","TIME_SYSTEM":"UTC","RA_OF_ASC_NODE":"234.0791","MEAN_MOTION_DDOT":"0.0000000000000","OBJECT_NAME":"STARLINK-2312","REV_AT_EPOCH":"359","NORAD_CAT_ID":"47980","BSTAR":"-0.00079249000000","ECCENTRICITY":"0.00026480","INCLINATION":"53.0530","SITE":"AFETR","MEAN_ELEMENT_THEORY":"SGP4","LAUNCH_DATE":"2021-03-24","GP_ID":"193558682","TLE_LINE1":"1 47980U 21024D   22009.91667824 -.00011813  00000-0 -79249-3 0  9993","PERIAPSIS":"547.843","MEAN_MOTION":"15.05596352","EPHEMERIS_TYPE":"0"},{"OBJECT_NAME":"STARLINK-2303","RA_OF_ASC_NODE":"320.7649","MEAN_MOTION_DDOT":"0.0000000000000","FILE":"3268202","ELEMENT_SET_NO":"999","TIME_SYSTEM":"UTC","BSTAR":"0.00015624000000","NORAD_CAT_ID":"47981","REV_AT_EPOCH":"4491","GP_ID":"193533714","LAUNCH_DATE":"2021-03-24","MEAN_ELEMENT_THEORY":"SGP4","INCLINATION":"53.0545","SITE":"AFETR","ECCENTRICITY":"0.00019120","EPHEMERIS_TYPE":"0","MEAN_MOTION":"15.06401155","TLE_LINE1":"1 47981U 21024E   22009.55815599  .00002046  00000-0  15624-3 0  9991","PERIAPSIS":"545.886","CLASSIFICATION_TYPE":"U","SEMIMAJOR_AXIS":"6925.345","REF_FRAME":"TEME","COUNTRY_CODE":"US","TLE_LINE2":"2 47981  53.0545 320.7649 0001912  64.3687 295.7499 15.06401155 44912","CENTER_NAME":"EARTH","RCS_SIZE":"LARGE","PERIOD":"95.592","OBJECT_ID":"2021-024E","DECAY_DATE":null,"MEAN_MOTION_DOT":"0.00002046","OBJECT_TYPE":"PAYLOAD","APOAPSIS":"548.534","MEAN_ANOMALY":"295.7499","EPOCH":"2022-01-09T13:23:44.677536","ARG_OF_PERICENTER":"64.3687"},{"MEAN_MOTION_DOT":"-0.00013773","DECAY_DATE":null,"RCS_SIZE":"LARGE","CENTER_NAME":"EARTH","PERIOD":"95.591","OBJECT_ID":"2021-024F","EPOCH":"2022-01-09T22:00:00.999936","ARG_OF_PERICENTER":"56.5671","OBJECT_TYPE":"PAYLOAD","APOAPSIS":"548.923","MEAN_ANOMALY":"193.8439","SEMIMAJOR_AXIS":"6925.305","REF_FRAME":"TEME","CLASSIFICATION_TYPE":"U","TLE_LINE2":"2 47982  53.0527 249.1398 0002531  56.5671 193.8439 15.06414285  3580","COUNTRY_CODE":"US","MEAN_ELEMENT_THEORY":"SGP4","SITE":"AFETR","INCLINATION":"53.0527","ECCENTRICITY":"0.00025310","GP_ID":"193557698","LAUNCH_DATE":"2021-03-24","EPHEMERIS_TYPE":"0","MEAN_MOTION":"15.06414285","PERIAPSIS":"545.417","TLE_LINE1":"1 47982U 21024F   22009.91667824 -.00013773  00000-0 -90707-3 0  9994","FILE":"3268323","ELEMENT_SET_NO":"999","TIME_SYSTEM":"UTC","OBJECT_NAME":"STARLINK-2317","MEAN_MOTION_DDOT":"0.0000000000000","RA_OF_ASC_NODE":"249.1398","REV_AT_EPOCH":"358","BSTAR":"-0.00090707000000","NORAD_CAT_ID":"47982"},{"DECAY_DATE":null,"MEAN_MOTION_DOT":"0.00629811","RCS_SIZE":"LARGE","CENTER_NAME":"EARTH","PERIOD":"90.384","OBJECT_ID":"2021-024G","EPOCH":"2022-01-09T22:00:00.999936","ARG_OF_PERICENTER":"319.8081","APOAPSIS":"293.591","OBJECT_TYPE":"PAYLOAD","MEAN_ANOMALY":"232.6760","REF_FRAME":"TEME","SEMIMAJOR_AXIS":"6671.448","CLASSIFICATION_TYPE":"U","TLE_LINE2":"2 47983  53.0412 189.7022 0000417 319.8081 232.6760 15.93208510  3923","COUNTRY_CODE":"US","SITE":"AFETR","INCLINATION":"53.0412","MEAN_ELEMENT_THEORY":"SGP4","ECCENTRICITY":"0.00004170","GP_ID":"193558450","LAUNCH_DATE":"2021-03-24","MEAN_MOTION":"15.93208510","EPHEMERIS_TYPE":"0","TLE_LINE1":"1 47983U 21024G   22009.91667824  .00629811  17187-3  17515-2 0  9991","PERIAPSIS":"293.035","ELEMENT_SET_NO":"999","FILE":"3268323","TIME_SYSTEM":"UTC","OBJECT_NAME":"STARLINK-2289","MEAN_MOTION_DDOT":"0.0001718700000","RA_OF_ASC_NODE":"189.7022","REV_AT_EPOCH":"392","NORAD_CAT_ID":"47983","BSTAR":"0.00175150000000"},{"GP_ID":"193536526","LAUNCH_DATE":"2021-03-24","SITE":"AFETR","INCLINATION":"53.0303","MEAN_ELEMENT_THEORY":"SGP4","ECCENTRICITY":"0.00079370","MEAN_MOTION":"16.30872857","EPHEMERIS_TYPE":"0","PERIAPSIS":"184.984","TLE_LINE1":"1 47984U 21024H   22009.99880300  .14626339  12171-4  28471-2 0  9995","OBJECT_NAME":"STARLINK-2316","MEAN_MOTION_DDOT":"0.0000121710000","RA_OF_ASC_NODE":"191.7656","FILE":"3268322","ELEMENT_SET_NO":"999","TIME_SYSTEM":"UTC","NORAD_CAT_ID":"47984","BSTAR":"0.00284710000000","REV_AT_EPOCH":"4675","PERIOD":"88.296","RCS_SIZE":"LARGE","CENTER_NAME":"EARTH","OBJECT_ID":"2021-024H","DECAY_DATE":null,"MEAN_MOTION_DOT":"0.14626339","APOAPSIS":"195.410","OBJECT_TYPE":"PAYLOAD","MEAN_ANOMALY":"200.7188","EPOCH":"2022-01-09T23:58:16.579200","ARG_OF_PERICENTER":"296.7423","CLASSIFICATION_TYPE":"U","REF_FRAME":"TEME","SEMIMAJOR_AXIS":"6568.332","COUNTRY_CODE":"US","TLE_LINE2":"2 47984  53.0303 191.7656 0007937 296.7423 200.7188 16.30872857 46757"},{"TLE_LINE1":"1 47985U 21024J   22009.91667824 -.00049401  00000-0 -34674-2 0  9994","PERIAPSIS":"550.552","MEAN_MOTION":"15.04795577","EPHEMERIS_TYPE":"0","ECCENTRICITY":"0.00022840","SITE":"AFETR","INCLINATION":"53.0547","MEAN_ELEMENT_THEORY":"SGP4","LAUNCH_DATE":"2021-03-24","GP_ID":"193557948","REV_AT_EPOCH":"358","NORAD_CAT_ID":"47985","BSTAR":"-0.00346740000000","FILE":"3268323","TIME_SYSTEM":"UTC","ELEMENT_SET_NO":"999","MEAN_MOTION_DDOT":"0.0000000000000","RA_OF_ASC_NODE":"253.8520","OBJECT_NAME":"STARLINK-2308","ARG_OF_PERICENTER":"66.2255","EPOCH":"2022-01-09T22:00:00.999936","MEAN_ANOMALY":"30.8545","APOAPSIS":"553.718","OBJECT_TYPE":"PAYLOAD","MEAN_MOTION_DOT":"-0.00049401","DECAY_DATE":null,"OBJECT_ID":"2021-024J","RCS_SIZE":"LARGE","CENTER_NAME":"EARTH","PERIOD":"95.694","TLE_LINE2":"2 47985  53.0547 253.8520 0002284  66.2255  30.8545 15.04795577  3587","COUNTRY_CODE":"US","REF_FRAME":"TEME","SEMIMAJOR_AXIS":"6930.270","CLASSIFICATION_TYPE":"U"},{"CLASSIFICATION_TYPE":"U","SEMIMAJOR_AXIS":"6713.873","REF_FRAME":"TEME","COUNTRY_CODE":"US","TLE_LINE2":"2 47986  53.0270 190.6169 0008634 169.1415  53.8321 15.78131260  3697","CENTER_NAME":"EARTH","RCS_SIZE":"LARGE","PERIOD":"91.247","OBJECT_ID":"2021-024K","MEAN_MOTION_DOT":"0.00130021","DECAY_DATE":null,"OBJECT_TYPE":"PAYLOAD","APOAPSIS":"341.534","MEAN_ANOMALY":"53.8321","EPOCH":"2022-01-09T22:00:00.999936","ARG_OF_PERICENTER":"169.1415","OBJECT_NAME":"STARLINK-2313","MEAN_MOTION_DDOT":"0.0000000000000","RA_OF_ASC_NODE":"190.6169","ELEMENT_SET_NO":"999","FILE":"3268323","TIME_SYSTEM":"UTC","BSTAR":"0.00073715000000","NORAD_CAT_ID":"47986","REV_AT_EPOCH":"369","GP_ID":"193558198","LAUNCH_DATE":"2021-03-24","MEAN_ELEMENT_THEORY":"SGP4","INCLINATION":"53.0270","SITE":"AFETR","ECCENTRICITY":"0.00086340","EPHEMERIS_TYPE":"0","MEAN_MOTION":"15.78131260","TLE_LINE1":"1 47986U 21024K   22009.91667824  .00130021  00000-0  73715-3 0  9992","PERIAPSIS":"329.941"},{"BSTAR":"0.00199020000000","NORAD_CAT_ID":"47988","REV_AT_EPOCH":"4529","RA_OF_ASC_NODE":"293.5877","MEAN_MOTION_DDOT":"0.0000000000000","OBJECT_NAME":"STARLINK-2306","TIME_SYSTEM":"UTC","FILE":"3268204","ELEMENT_SET_NO":"999","TLE_LINE1":"1 47988U 21024M   22009.47483769  .00042714  00000-0  19902-2 0  9997","PERIAPSIS":"506.124","EPHEMERIS_TYPE":"0","MEAN_MOTION":"15.19503176","LAUNCH_DATE":"2021-03-24","GP_ID":"193533731","ECCENTRICITY":"0.00017700","MEAN_ELEMENT_THEORY":"SGP4","INCLINATION":"53.0593","SITE":"AFETR","COUNTRY_CODE":"US","TLE_LINE2":"2 47988  53.0593 293.5877 0001770  44.9235 315.1903 15.19503176 45296","CLASSIFICATION_TYPE":"U","SEMIMAJOR_AXIS":"6885.478","REF_FRAME":"TEME","MEAN_ANOMALY":"315.1903","OBJECT_TYPE":"PAYLOAD","APOAPSIS":"508.562","ARG_OF_PERICENTER":"44.9235","EPOCH":"2022-01-09T11:23:45.976416","OBJECT_ID":"2021-024M","RCS_SIZE":"LARGE","PERIOD":"94.768","CENTER_NAME":"EARTH","DECAY_DATE":null,"MEAN_MOTION_DOT":"0.00042714"}];
